STARLINK-2422           
1 47832U 21018AX  26068.73449326  .00004138  00000+0  15173-3 0  9991
2 47832  53.1607 245.2855 0001394  83.7938 276.3221 15.30204015276698
YAOGAN-43 01D           
1 60461U 24148D   26068.43560480  .00010676  00000+0  37766-3 0  9999
2 60461  35.0010  61.7102 0002556 326.2473  33.8080 15.28369377 87008
