[{"OBJECT_NAME":"STARLINK-2422","OBJECT_ID":"2021-018AX","EPOCH":"2026-03-09T17:37:40.218528","MEAN_MOTION":15.30204015,"ECCENTRICITY":0.00013942,"INCLINATION":53.1607,"RA_OF_ASC_NODE":245.2855,"ARG_OF_PERICENTER":83.7938,"MEAN_ANOMALY":276.3221,"EPHEMERIS_TYPE":0,"CLASSIFICATION_TYPE":"U","NORAD_CAT_ID":47832,"ELEMENT_SET_NO":999,"REV_AT_EPOCH":27669,"BSTAR":0.00015173019,"MEAN_MOTION_DOT":4.138e-5,"MEAN_MOTION_DDOT":0},{"OBJECT_NAME":"YAOGAN-43 01D","OBJECT_ID":"2024-148D","EPOCH":"2026-03-09T10:27:16.254720","MEAN_MOTION":15.28369377,"ECCENTRICITY":0.00025569,"INCLINATION":35.001,"RA_OF_ASC_NODE":61.7102,"ARG_OF_PERICENTER":326.2473,"MEAN_ANOMALY":33.808,"EPHEMERIS_TYPE":0,"CLASSIFICATION_TYPE":"U","NORAD_CAT_ID":60461,"ELEMENT_SET_NO":999,"REV_AT_EPOCH":8700,"BSTAR":0.00037765912,"MEAN_MOTION_DOT":0.00010676,"MEAN_MOTION_DDOT":0}]
